CTC2_L_00633007-03
1 51501U 23269XU  26070.40851852  .00000000  00000+0  00000-0 0  9991
2 51501  65.0000 180.0000 0000000   0.0000 144.0000  4.33913782    14
CTC2_L_00633007-04
1 51502U 25138IL  26070.40851852  .00000000  00000+0  00000-0 0  9999
2 51502  65.0000 180.0000 0000000   0.0000 180.0000  4.33913782    15
CTC2_L_00633007-05
1 51503U 26121AM  26070.40851852  .00000000  00000+0  00000-0 0  9993
2 51503  65.0000 180.0000 0000000   0.0000 216.0000  4.33913782    16
CTC2_L_00633007-06
1 51504U 24709GU  26070.40851852  .00000000  00000+0  00000-0 0  9994
2 51504  65.0000 180.0000 0000000   0.0000 252.0000  4.33913782    17
CTC2_L_00633007-07
1 51505U 24786SC  26070.40851852  .00000000  00000+0  00000-0 0  9990
2 51505  65.0000 180.0000 0000000   0.0000 288.0000  4.33913782    17
CTC2_L_00633007-08
1 51506U 25931FK  26070.40851852  .00000000  00000+0  00000-0 0  9994
2 51506  65.0000 180.0000 0000000   0.0000 324.0000  4.33913782    19
CTC2_L_00633007-09
1 51507U 26387OH  26070.40851852  .00000000  00000+0  00000-0 0  9991
2 51507  65.0000 180.0000 0000000   0.0000   0.0000  4.33913782    11
CTC2_L_00633007-10
1 51508U 22962KM  26070.40851852  .00000000  00000+0  00000-0 0  9997
2 51508  65.0000 180.0000 0000000   0.0000  36.0000  4.33913782    11
CTC2_L_00633008-01
1 51509U 26734LL  26070.40851852  .00000000  00000+0  00000-0 0  9999
2 51509  65.0000 210.0000 0000000   0.0000  84.0000  4.33913782    19
CTC2_L_00633008-02
1 51510U 26774RI  26070.40851852  .00000000  00000+0  00000-0 0  9995
2 51510  65.0000 210.0000 0000000   0.0000 120.0000  4.33913782    12
CTC2_L_00633008-03
1 51511U 23386RP  26070.40851852  .00000000  00000+0  00000-0 0  9992
2 51511  65.0000 210.0000 0000000   0.0000 156.0000  4.33913782    12
CTC2_L_00633008-04
1 51512U 26130DT  26070.40851852  .00000000  00000+0  00000-0 0  9993
2 51512  65.0000 210.0000 0000000   0.0000 192.0000  4.33913782    13
CTC2_L_00633008-05
1 51513U 24283HE  26070.40851852  .00000000  00000+0  00000-0 0  9991
2 51513  65.0000 210.0000 0000000   0.0000 228.0000  4.33913782    14
CTC2_L_00633008-06
1 51514U 24942ZG  26070.40851852  .00000000  00000+0  00000-0 0  9994
2 51514  65.0000 210.0000 0000000   0.0000 264.0000  4.33913782    15
CTC2_L_00633008-07
1 51515U 24042QF  26070.40851852  .00000000  00000+0  00000-0 0  9996
2 51515  65.0000 210.0000 0000000   0.0000 300.0000  4.33913782    17
CTC2_L_00633008-08
1 51516U 24848QS  26070.40851852  .00000000  00000+0  00000-0 0  9991
2 51516  65.0000 210.0000 0000000   0.0000 336.0000  4.33913782    17
CTC2_L_00633008-09
1 51517U 22878SO  26070.40851852  .00000000  00000+0  00000-0 0  9993
2 51517  65.0000 210.0000 0000000   0.0000  12.0000  4.33913782    19
CTC2_L_00633008-10
1 51518U 24742VN  26070.40851852  .00000000  00000+0  00000-0 0  9996
2 51518  65.0000 210.0000 0000000   0.0000  48.0000  4.33913782    19
CTC2_L_00633009-01
1 51519U 22733OY  26070.40851852  .00000000  00000+0  00000-0 0  9995
2 51519  65.0000 240.0000 0000000   0.0000  96.0000  4.33913782    16
CTC2_L_00633009-02
1 51520U 26019BU  26070.40851852  .00000000  00000+0  00000-0 0  9998
2 51520  65.0000 240.0000 0000000   0.0000 132.0000  4.33913782    19
CTC2_L_00633009-03
1 51521U 23154VU  26070.40851852  .00000000  00000+0  00000-0 0  9996
2 51521  65.0000 240.0000 0000000   0.0000 168.0000  4.33913782    19
CTC2_L_00633009-04
1 51522U 26620K   26070.40851852  .00000000  00000+0  00000-0 0  9998
2 51522  65.0000 240.0000 0000000   0.0000 204.0000  4.33913782    11
CTC2_L_00633009-05
1 51523U 25629AI  26070.40851852  .00000000  00000+0  00000-0 0  9997
2 51523  65.0000 240.0000 0000000   0.0000 240.0000  4.33913782    12
CTC2_L_00633009-06
1 51524U 24787QJ  26070.40851852  .00000000  00000+0  00000-0 0  9992
2 51524  65.0000 240.0000 0000000   0.0000 276.0000  4.33913782    12
CTC2_L_00633009-07
1 51525U 24372DZ  26070.40851852  .00000000  00000+0  00000-0 0  9993
2 51525  65.0000 240.0000 0000000   0.0000 312.0000  4.33913782    14
CTC2_L_00633009-08
1 51526U 25673HE  26070.40851852  .00000000  00000+0  00000-0 0  9999
2 51526  65.0000 240.0000 0000000   0.0000 348.0000  4.33913782    14
CTC2_L_00633009-09
1 51527U 26405MN  26070.40851852  .00000000  00000+0  00000-0 0  9994
2 51527  65.0000 240.0000 0000000   0.0000  24.0000  4.33913782    16
CTC2_L_00633009-10
1 51528U 25171QK  26070.40851852  .00000000  00000+0  00000-0 0  9994
2 51528  65.0000 240.0000 0000000   0.0000  60.0000  4.33913782    17
CTC2_L_00633010-01
1 51529U 22327ZP  26070.40851852  .00000000  00000+0  00000-0 0  9995
2 51529  65.0000 270.0000 0000000   0.0000 108.0000  4.33913782    14
CTC2_L_00633010-02
1 51530U 25107TV  26070.40851852  .00000000  00000+0  00000-0 0  9996
2 51530  65.0000 270.0000 0000000   0.0000 144.0000  4.33913782    16
CTC2_L_00633010-03
1 51531U 25567NA  26070.40851852  .00000000  00000+0  00000-0 0  9997
2 51531  65.0000 270.0000 0000000   0.0000 180.0000  4.33913782    17
CTC2_L_00633010-04
1 51532U 25810DA  26070.40851852  .00000000  00000+0  00000-0 0  9999
2 51532  65.0000 270.0000 0000000   0.0000 216.0000  4.33913782    18
CTC2_L_00633010-05
1 51533U 22722SA  26070.40851852  .00000000  00000+0  00000-0 0  9999
2 51533  65.0000 270.0000 0000000   0.0000 252.0000  4.33913782    19
CTC2_L_00633010-06
1 51534U 25260UK  26070.40851852  .00000000  00000+0  00000-0 0  9990
2 51534  65.0000 270.0000 0000000   0.0000 288.0000  4.33913782    19
CTC2_L_00633010-07
1 51535U 24620JD  26070.40851852  .00000000  00000+0  00000-0 0  9990
2 51535  65.0000 270.0000 0000000   0.0000 324.0000  4.33913782    11
CTC2_L_00633010-08
1 51536U 22954HU  26070.40851852  .00000000  00000+0  00000-0 0  9999
2 51536  65.0000 270.0000 0000000   0.0000   0.0000  4.33913782    13
CTC2_L_00633010-09
1 51537U 22701NX  26070.40851852  .00000000  00000+0  00000-0 0  9990
2 51537  65.0000 270.0000 0000000   0.0000  36.0000  4.33913782    13
CTC2_L_00633010-10
1 51538U 22157GD  26070.40851852  .00000000  00000+0  00000-0 0  9996
2 51538  65.0000 270.0000 0000000   0.0000  72.0000  4.33913782    14
CTC2_L_00633011-01
1 51539U 24892IW  26070.40851852  .00000000  00000+0  00000-0 0  9995
2 51539  65.0000 300.0000 0000000   0.0000 120.0000  4.33913782    13
CTC2_L_00633011-02
1 51540U 22295NN  26070.40851852  .00000000  00000+0  00000-0 0  9992
2 51540  65.0000 300.0000 0000000   0.0000 156.0000  4.33913782    14
CTC2_L_00633011-03
1 51541U 23009NH  26070.40851852  .00000000  00000+0  00000-0 0  9997
2 51541  65.0000 300.0000 0000000   0.0000 192.0000  4.33913782    15
CTC2_L_00633011-04
1 51542U 26938FE  26070.40851852  .00000000  00000+0  00000-0 0  9992
2 51542  65.0000 300.0000 0000000   0.0000 228.0000  4.33913782    16
CTC2_L_00633011-05
1 51543U 23992AO  26070.40851852  .00000000  00000+0  00000-0 0  9990
2 51543  65.0000 300.0000 0000000   0.0000 264.0000  4.33913782    17
CTC2_L_00633011-06
1 51544U 24648TL  26070.40851852  .00000000  00000+0  00000-0 0  9990
2 51544  65.0000 300.0000 0000000   0.0000 300.0000  4.33913782    19
CTC2_L_00633011-07
1 51545U 24125MV  26070.40851852  .00000000  00000+0  00000-0 0  9991
2 51545  65.0000 300.0000 0000000   0.0000 336.0000  4.33913782    19
CTC2_L_00633011-08
1 51546U 26158SL  26070.40851852  .00000000  00000+0  00000-0 0  9990
2 51546  65.0000 300.0000 0000000   0.0000  12.0000  4.33913782    11
CTC2_L_00633011-09
1 51547U 25267OL  26070.40851852  .00000000  00000+0  00000-0 0  9991
2 51547  65.0000 300.0000 0000000   0.0000  48.0000  4.33913782    11
CTC2_L_00633011-10
1 51548U 24960LC  26070.40851852  .00000000  00000+0  00000-0 0  9991
2 51548  65.0000 300.0000 0000000   0.0000  84.0000  4.33913782    12
CTC2_L_00633012-01
1 51549U 26909NT  26070.40851852  .00000000  00000+0  00000-0 0  9997
2 51549  65.0000 330.0000 0000000   0.0000 132.0000  4.33913782    10
CTC2_L_00633012-02
1 51550U 26778SG  26070.40851852  .00000000  00000+0  00000-0 0  9993
2 51550  65.0000 330.0000 0000000   0.0000 168.0000  4.33913782    11
CTC2_L_00633012-03
1 51551U 23202UF  26070.40851852  .00000000  00000+0  00000-0 0  9993
2 51551  65.0000 330.0000 0000000   0.0000 204.0000  4.33913782    13
CTC2_L_00633012-04
1 51552U 24594PP  26070.40851852  .00000000  00000+0  00000-0 0  9999
2 51552  65.0000 330.0000 0000000   0.0000 240.0000  4.33913782    14
CTC2_L_00633012-05
1 51553U 22894VU  26070.40851852  .00000000  00000+0  00000-0 0  9991
2 51553  65.0000 330.0000 0000000   0.0000 276.0000  4.33913782    14
CTC2_L_00633012-06
1 51554U 25280FO  26070.40851852  .00000000  00000+0  00000-0 0  9994
2 51554  65.0000 330.0000 0000000   0.0000 312.0000  4.33913782    16
CTC2_L_00633012-07
1 51555U 25227CW  26070.40851852  .00000000  00000+0  00000-0 0  9996
2 51555  65.0000 330.0000 0000000   0.0000 348.0000  4.33913782    16
CTC2_L_00633012-08
1 51556U 25919WV  26070.40851852  .00000000  00000+0  00000-0 0  9995
2 51556  65.0000 330.0000 0000000   0.0000  24.0000  4.33913782    18
CTC2_L_00633012-09
1 51557U 25404KG  26070.40851852  .00000000  00000+0  00000-0 0  9995
2 51557  65.0000 330.0000 0000000   0.0000  60.0000  4.33913782    19
CTC2_L_00633012-10
1 51558U 25334OA  26070.40851852  .00000000  00000+0  00000-0 0  9998
2 51558  65.0000 330.0000 0000000   0.0000  96.0000  4.33913782    19
